[{"OBJECT_NAME":"STARLINK-4607","OBJECT_ID":"2022-107AS","EPOCH":"2025-10-28T06:24:45.035424","MEAN_MOTION":15.08839936,"ECCENTRICITY":0.00013316,"INCLINATION":53.2129,"RA_OF_ASC_NODE":138.4771,"ARG_OF_PERICENTER":97.0341,"MEAN_ANOMALY":263.0803,"EPHEMERIS_TYPE":0,"CLASSIFICATION_TYPE":"U","NORAD_CAT_ID":53740,"ELEMENT_SET_NO":999,"REV_AT_EPOCH":17460,"BSTAR":-2.736148e-5,"MEAN_MOTION_DOT":-7.23e-6,"MEAN_MOTION_DDOT":0},{"OBJECT_NAME":"STARLINK-4637","OBJECT_ID":"2022-107AU","EPOCH":"2025-10-28T12:51:36.344448","MEAN_MOTION":15.08839164,"ECCENTRICITY":0.00013503,"INCLINATION":53.2146,"RA_OF_ASC_NODE":137.3121,"ARG_OF_PERICENTER":90.4871,"MEAN_ANOMALY":269.6276,"EPHEMERIS_TYPE":0,"CLASSIFICATION_TYPE":"U","NORAD_CAT_ID":53742,"ELEMENT_SET_NO":999,"REV_AT_EPOCH":17464,"BSTAR":0.00010062616,"MEAN_MOTION_DOT":1.314e-5,"MEAN_MOTION_DDOT":0},{"OBJECT_NAME":"STARLINK-4645","OBJECT_ID":"2022-107AV","EPOCH":"2025-10-28T06:51:16.954560","MEAN_MOTION":15.08842502,"ECCENTRICITY":0.00013063,"INCLINATION":53.2157,"RA_OF_ASC_NODE":138.5954,"ARG_OF_PERICENTER":89.6327,"MEAN_ANOMALY":270.4815,"EPHEMERIS_TYPE":0,"CLASSIFICATION_TYPE":"U","NORAD_CAT_ID":53743,"ELEMENT_SET_NO":999,"REV_AT_EPOCH":17460,"BSTAR":2.6638674e-5,"MEAN_MOTION_DOT":1.36e-6,"MEAN_MOTION_DDOT":0},{"OBJECT_NAME":"STARLINK-4670","OBJECT_ID":"2022-107AW","EPOCH":"2025-10-28T05:47:36.151296","MEAN_MOTION":15.08846732,"ECCENTRICITY":0.00015405,"INCLINATION":53.2166,"RA_OF_ASC_NODE":138.3282,"ARG_OF_PERICENTER":88.0722,"MEAN_ANOMALY":272.0446,"EPHEMERIS_TYPE":0,"CLASSIFICATION_TYPE":"U","NORAD_CAT_ID":53744,"ELEMENT_SET_NO":999,"REV_AT_EPOCH":17460,"BSTAR":9.8541609e-5,"MEAN_MOTION_DOT":1.281e-5,"MEAN_MOTION_DDOT":0},{"OBJECT_NAME":"STARLINK-4656","OBJECT_ID":"2022-107AX","EPOCH":"2025-10-28T06:56:35.162304","MEAN_MOTION":15.08842931,"ECCENTRICITY":0.00012938,"INCLINATION":53.2157,"RA_OF_ASC_NODE":138.6164,"ARG_OF_PERICENTER":86.5829,"MEAN_ANOMALY":273.5311,"EPHEMERIS_TYPE":0,"CLASSIFICATION_TYPE":"U","NORAD_CAT_ID":53745,"ELEMENT_SET_NO":999,"REV_AT_EPOCH":17460,"BSTAR":6.9125024e-5,"MEAN_MOTION_DOT":8.12e-6,"MEAN_MOTION_DDOT":0},{"OBJECT_NAME":"STARLINK-4589","OBJECT_ID":"2022-107AY","EPOCH":"2025-10-28T13:07:31.520640","MEAN_MOTION":15.08837391,"ECCENTRICITY":0.00013776,"INCLINATION":53.216,"RA_OF_ASC_NODE":137.3815,"ARG_OF_PERICENTER":87.3495,"MEAN_ANOMALY":272.7655,"EPHEMERIS_TYPE":0,"CLASSIFICATION_TYPE":"U","NORAD_CAT_ID":53746,"ELEMENT_SET_NO":999,"REV_AT_EPOCH":17464,"BSTAR":3.9076262e-5,"MEAN_MOTION_DOT":3.34e-6,"MEAN_MOTION_DDOT":0},{"OBJECT_NAME":"STARLINK-4612","OBJECT_ID":"2022-107BC","EPOCH":"2025-10-27T19:59:30.024960","MEAN_MOTION":15.08846408,"ECCENTRICITY":0.00014131,"INCLINATION":53.2157,"RA_OF_ASC_NODE":140.7446,"ARG_OF_PERICENTER":85.7399,"MEAN_ANOMALY":274.3754,"EPHEMERIS_TYPE":0,"CLASSIFICATION_TYPE":"U","NORAD_CAT_ID":53750,"ELEMENT_SET_NO":999,"REV_AT_EPOCH":17454,"BSTAR":2.450074e-5,"MEAN_MOTION_DOT":1.02e-6,"MEAN_MOTION_DDOT":0},{"OBJECT_NAME":"STARLINK-4718","OBJECT_ID":"2022-111A","EPOCH":"2025-10-28T07:41:36.040128","MEAN_MOTION":15.08839868,"ECCENTRICITY":0.00014335,"INCLINATION":53.2165,"RA_OF_ASC_NODE":158.2699,"ARG_OF_PERICENTER":88.5951,"MEAN_ANOMALY":271.5205,"EPHEMERIS_TYPE":0,"CLASSIFICATION_TYPE":"U","NORAD_CAT_ID":53773,"ELEMENT_SET_NO":999,"REV_AT_EPOCH":17386,"BSTAR":5.5117995e-5,"MEAN_MOTION_DOT":5.89e-6,"MEAN_MOTION_DDOT":0},{"OBJECT_NAME":"STARLINK-4719","OBJECT_ID":"2022-111B","EPOCH":"2025-10-28T07:36:17.824608","MEAN_MOTION":15.08837909,"ECCENTRICITY":0.00014122,"INCLINATION":53.2159,"RA_OF_ASC_NODE":158.2451,"ARG_OF_PERICENTER":90.839,"MEAN_ANOMALY":269.2764,"EPHEMERIS_TYPE":0,"CLASSIFICATION_TYPE":"U","NORAD_CAT_ID":53774,"ELEMENT_SET_NO":999,"REV_AT_EPOCH":17372,"BSTAR":6.8792915e-5,"MEAN_MOTION_DOT":8.07e-6,"MEAN_MOTION_DDOT":0},{"OBJECT_NAME":"STARLINK-4722","OBJECT_ID":"2022-111C","EPOCH":"2025-10-28T13:06:13.943808","MEAN_MOTION":15.08837085,"ECCENTRICITY":0.00014287,"INCLINATION":53.2163,"RA_OF_ASC_NODE":147.5718,"ARG_OF_PERICENTER":91.9468,"MEAN_ANOMALY":268.1688,"EPHEMERIS_TYPE":0,"CLASSIFICATION_TYPE":"U","NORAD_CAT_ID":53775,"ELEMENT_SET_NO":999,"REV_AT_EPOCH":17374,"BSTAR":4.1578868e-5,"MEAN_MOTION_DOT":3.74e-6,"MEAN_MOTION_DDOT":0},{"OBJECT_NAME":"STARLINK-4664","OBJECT_ID":"2022-111E","EPOCH":"2025-10-28T14:31:00.832800","MEAN_MOTION":15.08833128,"ECCENTRICITY":0.00012828,"INCLINATION":53.2148,"RA_OF_ASC_NODE":147.229,"ARG_OF_PERICENTER":91.152,"MEAN_ANOMALY":268.9619,"EPHEMERIS_TYPE":0,"CLASSIFICATION_TYPE":"U","NORAD_CAT_ID":53777,"ELEMENT_SET_NO":999,"REV_AT_EPOCH":17375,"BSTAR":7.4897782e-5,"MEAN_MOTION_DOT":9.04e-6,"MEAN_MOTION_DDOT":0},{"OBJECT_NAME":"STARLINK-4709","OBJECT_ID":"2022-111F","EPOCH":"2025-10-28T07:13:04.892448","MEAN_MOTION":15.08839596,"ECCENTRICITY":0.00013804,"INCLINATION":53.216,"RA_OF_ASC_NODE":153.164,"ARG_OF_PERICENTER":88.7054,"MEAN_ANOMALY":271.4097,"EPHEMERIS_TYPE":0,"CLASSIFICATION_TYPE":"U","NORAD_CAT_ID":53778,"ELEMENT_SET_NO":999,"REV_AT_EPOCH":17364,"BSTAR":6.457216e-5,"MEAN_MOTION_DOT":7.4e-6,"MEAN_MOTION_DDOT":0},{"OBJECT_NAME":"STARLINK-4706","OBJECT_ID":"2022-111G","EPOCH":"2025-10-28T06:28:46.018848","MEAN_MOTION":15.08839797,"ECCENTRICITY":0.00014701,"INCLINATION":53.2168,"RA_OF_ASC_NODE":148.6923,"ARG_OF_PERICENTER":94.677,"MEAN_ANOMALY":265.439,"EPHEMERIS_TYPE":0,"CLASSIFICATION_TYPE":"U","NORAD_CAT_ID":53779,"ELEMENT_SET_NO":999,"REV_AT_EPOCH":17370,"BSTAR":3.1699954e-5,"MEAN_MOTION_DOT":2.17e-6,"MEAN_MOTION_DDOT":0},{"OBJECT_NAME":"STARLINK-4678","OBJECT_ID":"2022-111H","EPOCH":"2025-10-28T06:39:24.191712","MEAN_MOTION":15.0882627,"ECCENTRICITY":0.00013683,"INCLINATION":53.2152,"RA_OF_ASC_NODE":148.7394,"ARG_OF_PERICENTER":94.8792,"MEAN_ANOMALY":265.2356,"EPHEMERIS_TYPE":0,"CLASSIFICATION_TYPE":"U","NORAD_CAT_ID":53780,"ELEMENT_SET_NO":999,"REV_AT_EPOCH":17370,"BSTAR":0.00021495277,"MEAN_MOTION_DOT":3.133e-5,"MEAN_MOTION_DDOT":0},{"OBJECT_NAME":"STARLINK-4462","OBJECT_ID":"2022-111J","EPOCH":"2025-10-28T14:09:47.488608","MEAN_MOTION":15.08834785,"ECCENTRICITY":0.00014688,"INCLINATION":53.2155,"RA_OF_ASC_NODE":147.1386,"ARG_OF_PERICENTER":91.1125,"MEAN_ANOMALY":269.0036,"EPHEMERIS_TYPE":0,"CLASSIFICATION_TYPE":"U","NORAD_CAT_ID":53781,"ELEMENT_SET_NO":999,"REV_AT_EPOCH":17375,"BSTAR":3.8453895e-5,"MEAN_MOTION_DOT":3.24e-6,"MEAN_MOTION_DDOT":0},{"OBJECT_NAME":"STARLINK-4679","OBJECT_ID":"2022-111K","EPOCH":"2025-10-28T14:20:23.471232","MEAN_MOTION":15.08837095,"ECCENTRICITY":0.0001406,"INCLINATION":53.2158,"RA_OF_ASC_NODE":147.1822,"ARG_OF_PERICENTER":92.1049,"MEAN_ANOMALY":268.0104,"EPHEMERIS_TYPE":0,"CLASSIFICATION_TYPE":"U","NORAD_CAT_ID":53782,"ELEMENT_SET_NO":999,"REV_AT_EPOCH":17375,"BSTAR":6.2003216e-5,"MEAN_MOTION_DOT":6.99e-6,"MEAN_MOTION_DDOT":0}]
