53740,STARLINK-4607,2022,95.44,260.0,+,53.21,Active,1,LEO,USA,USA,Commercial,Communications,Falcon,1 53740U 22107AS  25301.26718791 -.00000723  00000+0 -27361-4 0  9999,2 53740  53.2129 138.4771 0001331  97.0341 263.0803 15.08839936174608,15.08839936,0.0001331,LEO
53742,STARLINK-4637,2022,95.44,260.0,+,53.22,Active,1,LEO,USA,USA,Commercial,Communications,Falcon,1 53742U 22107AU  25301.53583732  .00001314  00000+0  10063-3 0  9991,2 53742  53.2146 137.3121 0001350  90.4871 269.6276 15.08839164174645,15.08839164,0.000135,LEO
53743,STARLINK-4645,2022,95.44,260.0,+,53.22,Active,1,LEO,USA,USA,Commercial,Communications,Falcon,1 53743U 22107AV  25301.28561290  .00000136  00000+0  26639-4 0  9997,2 53743  53.2157 138.5954 0001306  89.6327 270.4815 15.08842502174607,15.08842502,0.0001306,LEO
53744,STARLINK-4670,2022,95.44,260.0,+,53.22,Active,1,LEO,USA,USA,Commercial,Communications,Falcon,1 53744U 22107AW  25301.24139064  .00001281  00000+0  98542-4 0  9998,2 53744  53.2166 138.3282 0001540  88.0722 272.0446 15.08846732174609,15.08846732,0.000154,LEO
53745,STARLINK-4656,2022,95.44,260.0,+,53.22,Active,1,LEO,USA,USA,Commercial,Communications,Falcon,1 53745U 22107AX  25301.28929586  .00000812  00000+0  69125-4 0  9993,2 53745  53.2157 138.6164 0001293  86.5829 273.5311 15.08842931174602,15.08842931,0.0001293,LEO
53746,STARLINK-4589,2022,95.44,260.0,+,53.22,Active,1,LEO,USA,USA,Commercial,Communications,Falcon,1 53746U 22107AY  25301.54689260  .00000334  00000+0  39076-4 0  9996,2 53746  53.2160 137.3815 0001377  87.3495 272.7655 15.08837391174647,15.08837391,0.0001377,LEO
53750,STARLINK-4612,2022,95.44,260.0,+,53.22,Active,1,LEO,USA,USA,Commercial,Communications,Falcon,1 53750U 22107BC  25300.83298640  .00000102  00000+0  24501-4 0  9990,2 53750  53.2157 140.7446 0001413  85.7399 274.3754 15.08846408174548,15.08846408,0.0001413,LEO
53773,STARLINK-4718,2022,95.44,260.0,+,53.22,Active,1,LEO,USA,USA,Commercial,Communications,Falcon,1 53773U 22111A   25301.32055602  .00000589  00000+0  55118-4 0  9991,2 53773  53.2165 158.2699 0001433  88.5951 271.5205 15.08839868173869,15.08839868,0.0001433,LEO
53774,STARLINK-4719,2022,95.44,260.0,+,53.22,Active,1,LEO,USA,USA,Commercial,Communications,Falcon,1 53774U 22111B   25301.31687297  .00000807  00000+0  68793-4 0  9998,2 53774  53.2159 158.2451 0001412  90.8390 269.2764 15.08837909173722,15.08837909,0.0001412,LEO
53775,STARLINK-4722,2022,95.44,260.0,+,53.22,Active,1,LEO,USA,USA,Commercial,Communications,Falcon,1 53775U 22111C   25301.54599472  .00000374  00000+0  41579-4 0  9993,2 53775  53.2163 147.5718 0001428  91.9468 268.1688 15.08837085173740,15.08837085,0.0001428,LEO
53777,STARLINK-4664,2022,95.44,260.0,+,53.22,Active,1,LEO,USA,USA,Commercial,Communications,Falcon,1 53777U 22111E   25301.60487075  .00000904  00000+0  74898-4 0  9996,2 53777  53.2148 147.2290 0001282  91.1520 268.9619 15.08833128173753,15.08833128,0.0001282,LEO
53778,STARLINK-4709,2022,95.44,260.0,+,53.22,Active,1,LEO,USA,USA,Commercial,Communications,Falcon,1 53778U 22111F   25301.30075107  .00000740  00000+0  64572-4 0  9999,2 53778  53.2160 153.1640 0001380  88.7054 271.4097 15.08839596173648,15.08839596,0.000138,LEO
53779,STARLINK-4706,2022,95.44,260.0,+,53.22,Active,1,LEO,USA,USA,Commercial,Communications,Falcon,1 53779U 22111G   25301.26997707  .00000217  00000+0  31700-4 0  9990,2 53779  53.2168 148.6923 0001470  94.6770 265.4390 15.08839797173700,15.08839797,0.000147,LEO
53780,STARLINK-4678,2022,95.44,260.0,+,53.22,Active,1,LEO,USA,USA,Commercial,Communications,Falcon,1 53780U 22111H   25301.27736333  .00003133  00000+0  21495-3 0  9998,2 53780  53.2152 148.7394 0001368  94.8792 265.2356 15.08826270173702,15.0882627,0.0001368,LEO
53781,STARLINK-4462,2022,95.44,260.0,+,53.22,Active,1,LEO,USA,USA,Commercial,Communications,Falcon,1 53781U 22111J   25301.59013297  .00000324  00000+0  38454-4 0  9994,2 53781  53.2155 147.1386 0001468  91.1125 269.0036 15.08834785173753,15.08834785,0.0001468,LEO
53782,STARLINK-4679,2022,95.44,260.0,+,53.22,Active,1,LEO,USA,USA,Commercial,Communications,Falcon,1 53782U 22111K   25301.59749388  .00000699  00000+0  62003-4 0  9994,2 53782  53.2158 147.1822 0001406  92.1049 268.0104 15.08837095173752,15.08837095,0.0001406,LEO
